{
  "norad_id": 62303,
  "name": "STARLINK-32621",
  "history": [
    {
      "epoch": "2026-03-28T06:50:44.683296Z",
      "apogee_km": 476.0897812063795,
      "perigee_km": 474.291468037678,
      "latitude_deg": 3.692757257800585e-05,
      "longitude_deg": 166.17796665369863,
      "height_km": 475.9620589457603,
      "semi_major_axis_km": 6853.327624622028,
      "eccentricity": 0.0001312,
      "inclination_deg": 53.1604,
      "raan_deg": 94.572,
      "arg_perigee_deg": 81.9031,
      "mean_anomaly_deg": 278.2119,
      "mean_motion_rev_day": 15.30208187
    },
    {
      "epoch": "2026-03-29T04:47:29.388480Z",
      "apogee_km": 475.9874261196228,
      "perigee_km": 474.4056767359525,
      "latitude_deg": 7.884318629218116e-06,
      "longitude_deg": -168.15750674754196,
      "height_km": 475.6870288280241,
      "semi_major_axis_km": 6853.333551427787,
      "eccentricity": 0.0001154,
      "inclination_deg": 53.16,
      "raan_deg": 90.3241,
      "arg_perigee_deg": 58.9445,
      "mean_anomaly_deg": 301.1669,
      "mean_motion_rev_day": 15.30206202
    },
    {
      "epoch": "2026-03-29T23:36:07.781760Z",
      "apogee_km": 476.8076567159551,
      "perigee_km": 473.4646300766062,
      "latitude_deg": 9.567565478186246e-06,
      "longitude_deg": -94.7310036478718,
      "height_km": 476.11685183885436,
      "semi_major_axis_km": 6853.27314339628,
      "eccentricity": 0.0002439,
      "inclination_deg": 53.1595,
      "raan_deg": 86.6831,
      "arg_perigee_deg": 92.8933,
      "mean_anomaly_deg": 267.2347,
      "mean_motion_rev_day": 15.30226434
    },
    {
      "epoch": "2026-03-30T05:52:20.366688Z",
      "apogee_km": 475.96819899821367,
      "perigee_km": 474.43962984066184,
      "latitude_deg": 2.1490911040674e-05,
      "longitude_deg": 169.74496190340207,
      "height_km": 476.28811183089164,
      "semi_major_axis_km": 6853.3409144194375,
      "eccentricity": 0.00011152,
      "inclination_deg": 53.1604,
      "raan_deg": 85.469,
      "arg_perigee_deg": 104.072,
      "mean_anomaly_deg": 256.0405,
      "mean_motion_rev_day": 15.30203736
    },
    {
      "epoch": "2026-03-30T12:08:33.320544Z",
      "apogee_km": 476.1768123342654,
      "perigee_km": 474.20154666281087,
      "latitude_deg": -5.664191428055986e-05,
      "longitude_deg": 74.22201896062879,
      "height_km": 475.71672946768416,
      "semi_major_axis_km": 6853.326179498538,
      "eccentricity": 0.00014411,
      "inclination_deg": 53.1593,
      "raan_deg": 84.2576,
      "arg_perigee_deg": 67.9747,
      "mean_anomaly_deg": 292.1406,
      "mean_motion_rev_day": 15.30208671
    },
    {
      "epoch": "2026-03-30T16:50:42.956448Z",
      "apogee_km": 476.05420358538686,
      "perigee_km": 474.33538797100573,
      "latitude_deg": 4.830466371892845e-05,
      "longitude_deg": 2.5776157102537134,
      "height_km": 476.0778055494539,
      "semi_major_axis_km": 6853.3317957781965,
      "eccentricity": 0.0001254,
      "inclination_deg": 53.1604,
      "raan_deg": 83.3464,
      "arg_perigee_deg": 88.9915,
      "mean_anomaly_deg": 271.123,
      "mean_motion_rev_day": 15.3020679
    },
    {
      "epoch": "2026-03-31T16:21:31.097952Z",
      "apogee_km": 476.2085681514527,
      "perigee_km": 474.23343037606537,
      "latitude_deg": 2.015116678646717e-05,
      "longitude_deg": 4.35984653597505,
      "height_km": 476.0882345052841,
      "semi_major_axis_km": 6853.357999263759,
      "eccentricity": 0.0001441,
      "inclination_deg": 53.1593,
      "raan_deg": 78.7949,
      "arg_perigee_deg": 88.2287,
      "mean_anomaly_deg": 271.8879,
      "mean_motion_rev_day": 15.30198014
    },
    {
      "epoch": "2026-04-01T15:52:19.002720Z",
      "apogee_km": 476.18057812427105,
      "perigee_km": 474.2081893520308,
      "latitude_deg": -1.8383126684602498e-06,
      "longitude_deg": 6.1446710144739365,
      "height_km": 475.86264731057264,
      "semi_major_axis_km": 6853.33138373815,
      "eccentricity": 0.0001439,
      "inclination_deg": 53.1595,
      "raan_deg": 74.245,
      "arg_perigee_deg": 76.538,
      "mean_anomaly_deg": 283.5781,
      "mean_motion_rev_day": 15.30206928
    },
    {
      "epoch": "2026-04-02T15:23:06.758016Z",
      "apogee_km": 476.47520074126896,
      "perigee_km": 473.84202750041277,
      "latitude_deg": 2.0162459698005367e-05,
      "longitude_deg": 7.929052376122226,
      "height_km": 476.015154413246,
      "semi_major_axis_km": 6853.295614120841,
      "eccentricity": 0.00019211,
      "inclination_deg": 53.1596,
      "raan_deg": 69.694,
      "arg_perigee_deg": 88.2339,
      "mean_anomaly_deg": 271.8882,
      "mean_motion_rev_day": 15.30218908
    },
    {
      "epoch": "2026-04-03T14:53:54.891744Z",
      "apogee_km": 476.30804558992713,
      "perigee_km": 474.07934244823264,
      "latitude_deg": 3.7784483414554378e-06,
      "longitude_deg": 9.712323360840118,
      "height_km": 475.73138149387773,
      "semi_major_axis_km": 6853.33069401908,
      "eccentricity": 0.0001626,
      "inclination_deg": 53.1588,
      "raan_deg": 65.1435,
      "arg_perigee_deg": 71.1578,
      "mean_anomaly_deg": 288.9599,
      "mean_motion_rev_day": 15.30207159
    },
    {
      "epoch": "2026-04-04T14:24:42.870816Z",
      "apogee_km": 476.0577812507572,
      "perigee_km": 474.2923680603262,
      "latitude_deg": -4.567473343057528e-05,
      "longitude_deg": 11.495415066620419,
      "height_km": 475.986600439397,
      "semi_major_axis_km": 6853.312074655541,
      "eccentricity": 0.0001288,
      "inclination_deg": 53.1583,
      "raan_deg": 60.5922,
      "arg_perigee_deg": 84.3852,
      "mean_anomaly_deg": 275.7295,
      "mean_motion_rev_day": 15.30213395
    },
    {
      "epoch": "2026-04-05T13:55:31.021824Z",
      "apogee_km": 476.10146316546525,
      "perigee_km": 474.32507477574836,
      "latitude_deg": 2.229933715629478e-05,
      "longitude_deg": 13.279575084204815,
      "height_km": 476.03986428406114,
      "semi_major_axis_km": 6853.3502689706065,
      "eccentricity": 0.0001296,
      "inclination_deg": 53.1593,
      "raan_deg": 56.0426,
      "arg_perigee_deg": 85.3909,
      "mean_anomaly_deg": 274.724,
      "mean_motion_rev_day": 15.30200603
    },
    {
      "epoch": "2026-04-06T02:27:56.315232Z",
      "apogee_km": 475.9681223909938,
      "perigee_km": 474.36294187191834,
      "latitude_deg": -3.25999189547511e-08,
      "longitude_deg": -177.76774601663382,
      "height_km": 476.1587020558499,
      "semi_major_axis_km": 6853.302532131456,
      "eccentricity": 0.00011711,
      "inclination_deg": 53.1595,
      "raan_deg": 53.6157,
      "arg_perigee_deg": 96.7977,
      "mean_anomaly_deg": 263.3157,
      "mean_motion_rev_day": 15.30216591
    },
    {
      "epoch": "2026-04-07T03:32:47.294304Z",
      "apogee_km": 475.91846657311544,
      "perigee_km": 474.4800883552007,
      "latitude_deg": 1.6660059021922034e-05,
      "longitude_deg": 160.13571797509155,
      "height_km": 476.13738469597547,
      "semi_major_axis_km": 6853.336277464158,
      "eccentricity": 0.00010494,
      "inclination_deg": 53.1594,
      "raan_deg": 48.7616,
      "arg_perigee_deg": 93.1721,
      "mean_anomaly_deg": 266.94,
      "mean_motion_rev_day": 15.30205289
    },
    {
      "epoch": "2026-04-08T06:11:41.813376Z",
      "apogee_km": 476.17234537023523,
      "perigee_km": 474.3230280463731,
      "latitude_deg": -2.2846491026819392e-05,
      "longitude_deg": 114.15490836194738,
      "height_km": 476.12380564548727,
      "semi_major_axis_km": 6853.384686708304,
      "eccentricity": 0.00013492,
      "inclination_deg": 53.1608,
      "raan_deg": 43.6024,
      "arg_perigee_deg": 88.6408,
      "mean_anomaly_deg": 271.4747,
      "mean_motion_rev_day": 15.30189076
    },
    {
      "epoch": "2026-04-09T05:42:29.655936Z",
      "apogee_km": 475.9475359370499,
      "perigee_km": 474.46145736691506,
      "latitude_deg": 2.124991944234791e-05,
      "longitude_deg": 115.94273774169164,
      "height_km": 475.8907712652873,
      "semi_major_axis_km": 6853.341496651982,
      "eccentricity": 0.00010842,
      "inclination_deg": 53.1599,
      "raan_deg": 39.0552,
      "arg_perigee_deg": 73.4139,
      "mean_anomaly_deg": 286.6981,
      "mean_motion_rev_day": 15.30203541
    },
    {
      "epoch": "2026-04-10T05:13:17.628960Z",
      "apogee_km": 476.0015632147315,
      "perigee_km": 474.3458033536508,
      "latitude_deg": -1.0403797636460487e-05,
      "longitude_deg": 117.72706584366058,
      "height_km": 475.7952525703763,
      "semi_major_axis_km": 6853.310683284191,
      "eccentricity": 0.0001208,
      "inclination_deg": 53.1613,
      "raan_deg": 34.5051,
      "arg_perigee_deg": 70.4644,
      "mean_anomaly_deg": 289.6487,
      "mean_motion_rev_day": 15.30213861
    },
    {
      "epoch": "2026-04-11T12:34:23.516256Z",
      "apogee_km": 476.19296491657406,
      "perigee_km": 474.4083297532079,
      "latitude_deg": 6.531372877106685e-06,
      "longitude_deg": 0.09587946603004603,
      "height_km": 476.1958473328169,
      "semi_major_axis_km": 6853.43764733489,
      "eccentricity": 0.0001302,
      "inclination_deg": 53.1611,
      "raan_deg": 28.436,
      "arg_perigee_deg": 89.8114,
      "mean_anomaly_deg": 270.3036,
      "mean_motion_rev_day": 15.30171339
    },
    {
      "epoch": "2026-04-13T00:37:35.620608Z",
      "apogee_km": 476.180132585273,
      "perigee_km": 474.0541160908215,
      "latitude_deg": -2.228527027017754e-05,
      "longitude_deg": 170.8364629846498,
      "height_km": 475.9628632795256,
      "semi_major_axis_km": 6853.254124338047,
      "eccentricity": 0.00015511,
      "inclination_deg": 53.1621,
      "raan_deg": 21.4577,
      "arg_perigee_deg": 87.1858,
      "mean_anomaly_deg": 272.932,
      "mean_motion_rev_day": 15.30232804
    }
  ]
}